STARLINK-35532          
1 66091U 25236F   26068.52066676  .00023933  00000+0  81744-3 0  9996
2 66091  53.1580 104.3062 0001198  93.3164 266.7974 15.30205397 22928
KUIPER-00208            
1 67775U 26030M   26068.67231509  .00043852  00000+0  13883-2 0  9994
2 67775  51.8846 219.6993 0015525  57.3146 302.9333 15.32208734  5080
